$$SOE
2460147.500000000, A.D. 2023-Jul-22 00:00:00.0000, -1.104043718432233E+06, -4.174266738426506E+08, -4.798018197732916E+07,
2460154.500000000, A.D. 2023-Jul-29 00:00:00.0000, 9.858071135291863E+06, -4.165022381639348E+08, -4.963542040591335E+07,
2460161.500000000, A.D. 2023-Aug-05 00:00:00.0000, 2.081365376058874E+07, -4.153040593523648E+08, -5.125803251553595E+07,
2460168.500000000, A.D. 2023-Aug-12 00:00:00.0000, 3.175544346881648E+07, -4.138317667568243E+08, -5.284680858042526E+07,
2460175.500000000, A.D. 2023-Aug-19 00:00:00.0000, 4.267613021713234E+07, -4.120852098188536E+08, -5.440055626053500E+07,
2460182.500000000, A.D. 2023-Aug-26 00:00:00.0000, 5.356836221937725E+07, -4.100644614488014E+08, -5.591810221668804E+07,
2460189.500000000, A.D. 2023-Sep-02 00:00:00.0000, 6.442475378363322E+07, -4.077698211565526E+08, -5.739829373440698E+07,
2460196.500000000, A.D. 2023-Sep-09 00:00:00.0000, 7.523789339809527E+07, -4.052018179588806E+08, -5.884000035853329E+07,
2460203.500000000, A.D. 2023-Sep-16 00:00:00.0000, 8.600035221785495E+07, -4.023612131037121E+08, -6.024211555411631E+07,
2460210.500000000, A.D. 2023-Sep-23 00:00:00.0000, 9.670469335154729E+07, -3.992490023083854E+08, -6.160355840354803E+07,
2460217.500000000, A.D. 2023-Sep-30 00:00:00.0000, 1.073434815889539E+08, -3.958664163059769E+08, -6.292327520651218E+07,
2460224.500000000, A.D. 2023-Oct-07 00:00:00.0000, 1.179092911947903E+08, -3.922149202272145E+08, -6.420024080588844E+07,
2460231.500000000, A.D. 2023-Oct-14 00:00:00.0000, 1.283947127869976E+08, -3.882962151157967E+08, -6.543346000019988E+07,
2460238.500000000, A.D. 2023-Oct-21 00:00:00.0000, 1.387923625065638E+08, -3.841122399618627E+08, -6.662196920252147E+07,
2460245.500000000, A.D. 2023-Oct-28 00:00:00.0000, 1.490948920315369E+08, -3.796651719841879E+08, -6.776483802548620E+07,
2460252.500000000, A.D. 2023-Nov-04 00:00:00.0000, 1.592949981605205E+08, -3.749574259234632E+08, -6.886117073556903E+07,
2460259.500000000, A.D. 2023-Nov-11 00:00:00.0000, 1.693854321175559E+08, -3.699916529396588E+08, -6.991010763678925E+07,
2460266.500000000, A.D. 2023-Nov-18 00:00:00.0000, 1.793590087714280E+08, -3.647707391725756E+08, -7.091082640412700E+07,
2460273.500000000, A.D. 2023-Nov-25 00:00:00.0000, 1.892086158149049E+08, -3.592978039394719E+08, -7.186254336646536E+07,
2460280.500000000, A.D. 2023-Dec-02 00:00:00.0000, 1.989272229041781E+08, -3.535761975787107E+08, -7.276451473758499E+07,
2460287.500000000, A.D. 2023-Dec-09 00:00:00.0000, 2.085078908086696E+08, -3.476094989975732E+08, -7.361603780241966E+07,
2460294.500000000, A.D. 2023-Dec-16 00:00:00.0000, 2.179437808319412E+08, -3.414015129135885E+08, -7.441645207974067E+07,
2460301.500000000, A.D. 2023-Dec-23 00:00:00.0000, 2.272281648255372E+08, -3.349562661074585E+08, -7.516514043352756E+07,
2460308.500000000, A.D. 2023-Dec-30 00:00:00.0000, 2.363544344279146E+08, -3.282780016464348E+08, -7.586152992108653E+07,
2460315.500000000, A.D. 2024-Jan-06 00:00:00.0000, 2.453161077272542E+08, -3.213711734471080E+08, -7.650509240477954E+07,
2460322.500000000, A.D. 2024-Jan-13 00:00:00.0000, 2.541068364931310E+08, -3.142404429926621E+08, -7.709534536261614E+07,
2460329.500000000, A.D. 2024-Jan-20 00:00:00.0000, 2.627204151752686E+08, -3.068906751312879E+08, -7.763185275527535E+07,
2460336.500000000, A.D. 2024-Jan-27 00:00:00.0000, 2.711507896162328E+08, -2.993269323182067E+08, -7.811422570823941E+07,
2460343.500000000, A.D. 2024-Feb-03 00:00:00.0000, 2.793920650256455E+08, -2.915544682661810E+08, -7.854212304556862E+07,
2460350.500000000, A.D. 2024-Feb-10 00:00:00.0000, 2.874385134702657E+08, -2.835787213132346E+08, -7.891525172314568E+07,
2460357.500000000, A.D. 2024-Feb-17 00:00:00.0000, 2.952845809970093E+08, -2.754053075189120E+08, -7.923336717246172E+07,
2460364.500000000, A.D. 2024-Feb-24 00:00:00.0000, 3.029248944045221E+08, -2.670400134952475E+08, -7.949627355643824E+07,
2460371.500000000, A.D. 2024-Mar-02 00:00:00.0000, 3.103542676733574E+08, -2.584887890272745E+08, -7.970382394232184E+07,
2460378.500000000, A.D. 2024-Mar-09 00:00:00.0000, 3.175677081754711E+08, -2.497577395688682E+08, -7.985592040939231E+07,
2460385.500000000, A.D. 2024-Mar-16 00:00:00.0000, 3.245604230426585E+08, -2.408531184404626E+08, -7.995251411192431E+07,
2460392.500000000, A.D. 2024-Mar-23 00:00:00.0000, 3.313278255773298E+08, -2.317813176459622E+08, -7.999360519828455E+07,
2460399.500000000, A.D. 2024-Mar-30 00:00:00.0000, 3.378655394514676E+08, -2.225488573642042E+08, -7.997924238384257E+07,
2460406.500000000, A.D. 2024-Apr-06 00:00:00.0000, 3.441694009352238E+08, -2.131623775089328E+08, -7.990952247649644E+07,
2460413.500000000, A.D. 2024-Apr-13 00:00:00.0000, 3.502354626944556E+08, -2.036286305437818E+08, -7.978459011227055E+07,
2460420.500000000, A.D. 2024-Apr-20 00:00:00.0000, 3.560599981995798E+08, -1.939544728995041E+08, -7.960463739666213E+07,
2460427.500000000, A.D. 2024-Apr-27 00:00:00.0000, 3.616395052275214E+08, -1.841468555816906E+08, -7.936990336178899E+07,
2460434.500000000, A.D. 2024-May-04 00:00:00.0000, 3.669707085451810E+08, -1.742128147012145E+08, -7.908067330886719E+07,
2460441.500000000, A.D. 2024-May-11 00:00:00.0000, 3.720505620138698E+08, -1.641594620586461E+08, -7.873727807014401E+07,
2460448.500000000, A.D. 2024-May-18 00:00:00.0000, 3.768762501983356E+08, -1.539939757898338E+08, -7.834009319965318E+07,
2460455.500000000, A.D. 2024-May-25 00:00:00.0000, 3.814451895077584E+08, -1.437235911073974E+08, -7.788953809903130E+07,
2460462.500000000, A.D. 2024-Jun-01 00:00:00.0000, 3.857550289323648E+08, -1.333555912220465E+08, -7.738607509188324E+07,
2460469.500000000, A.D. 2024-Jun-08 00:00:00.0000, 3.898036506266181E+08, -1.228972984915814E+08, -7.683020847433054E+07,
2460476.500000000, A.D. 2024-Jun-15 00:00:00.0000, 3.935891707450622E+08, -1.123560652749568E+08, -7.622248353707086E+07,
2460483.500000000, A.D. 2024-Jun-22 00:00:00.0000, 3.971099395369531E+08, -1.017392633380605E+08, -7.556348537489112E+07,
2460490.500000000, A.D. 2024-Jun-29 00:00:00.0000, 4.003645385919404E+08, -9.105427365588968E+07, -7.485383744277133E+07,
2460497.500000000, A.D. 2024-Jul-06 00:00:00.0000, 4.033517778930294E+08, -8.030847910505036E+07, -7.409420030729261E+07,
2460504.500000000, A.D. 2024-Jul-13 00:00:00.0000, 4.060706946375665E+08, -6.950925724152315E+07, -7.328527054512258E+07,
2460511.500000000, A.D. 2024-Jul-20 00:00:00.0000, 4.085205518555432E+08, -5.866397203284038E+07, -7.242777951698336E+07,
2460518.500000000, A.D. 2024-Jul-27 00:00:00.0000, 4.107008361858162E+08, -4.777996552156809E+07, -7.152249204009140E+07,
2460525.500000000, A.D. 2024-Aug-03 00:00:00.0000, 4.126112551002632E+08, -3.686454981120203E+07, -7.057020501949251E+07,
2460532.500000000, A.D. 2024-Aug-10 00:00:00.0000, 4.142517337593345E+08, -2.592499939347421E+07, -6.957174605860169E+07,
2460539.500000000, A.D. 2024-Aug-17 00:00:00.0000, 4.156224115647466E+08, -1.496854380829668E+07, -6.852797205625604E+07,
2460546.500000000, A.D. 2024-Aug-24 00:00:00.0000, 4.167236384563144E+08, -4.002360670174215E+06, -6.743976779940757E+07,
2460553.500000000, A.D. 2024-Aug-31 00:00:00.0000, 4.175559710880457E+08, 6.966430866791029E+06, -6.630804457175246E+07,
2460560.500000000, A.D. 2024-Sep-07 00:00:00.0000, 4.181201692674809E+08, 1.793077632193065E+07, -6.513373880575187E+07,
2460567.500000000, A.D. 2024-Sep-14 00:00:00.0000, 4.184171927605854E+08, 2.888369276781689E+07, -6.391781070808095E+07,
2460574.500000000, A.D. 2024-Sep-21 00:00:00.0000, 4.184481964531305E+08, 3.981827678529192E+07, -6.266124264252266E+07,
2460581.500000000, A.D. 2024-Sep-28 00:00:00.0000, 4.182145234033594E+08, 5.072771026072986E+07, -6.136503749367450E+07,
2460588.500000000, A.D. 2024-Oct-05 00:00:00.0000, 4.177176994734216E+08, 6.160526402180247E+07, -6.003021735121205E+07,
2460595.500000000, A.D. 2024-Oct-12 00:00:00.0000, 4.169594291947375E+08, 7.244430229040886E+07, -5.865782224072165E+07,
2460602.500000000, A.D. 2024-Oct-19 00:00:00.0000, 4.159415911342807E+08, 8.323828768283871E+07, -5.724890876564882E+07,
2460609.500000000, A.D. 2024-Oct-26 00:00:00.0000, 4.146662327483275E+08, 9.398078595751467E+07, -5.580454872612600E+07,
2460616.500000000, A.D. 2024-Nov-02 00:00:00.0000, 4.131355649999774E+08, 1.046654703644745E+08, -5.432582775359733E+07,
2460623.500000000, A.D. 2024-Nov-09 00:00:00.0000, 4.113519568558307E+08, 1.152861256205762E+08, -5.281384397140648E+07,
2460630.500000000, A.D. 2024-Nov-16 00:00:00.0000, 4.093179297061379E+08, 1.258366515145905E+08, -5.126970668640164E+07,
2460637.500000000, A.D. 2024-Nov-23 00:00:00.0000, 4.070361517732697E+08, 1.363110660966626E+08, -4.969453512230036E+07,
2460644.500000000, A.D. 2024-Nov-30 00:00:00.0000, 4.045094327339894E+08, 1.467035084138509E+08, -4.808945721941671E+07,
2460651.500000000, A.D. 2024-Dec-07 00:00:00.0000, 4.017407189899271E+08, 1.570082412158623E+08, -4.645560850631192E+07,
2460658.500000000, A.D. 2024-Dec-14 00:00:00.0000, 3.987330889083200E+08, 1.672196548591306E+08, -4.479413088075407E+07,
2460665.500000000, A.D. 2024-Dec-21 00:00:00.0000, 3.954897457249566E+08, 1.773322711765834E+08, -4.310617118914057E+07,
2460672.500000000, A.D. 2024-Dec-28 00:00:00.0000, 3.920140100950772E+08, 1.873407443543614E+08, -4.139288002885348E+07,
2460679.500000000, A.D. 2025-Jan-04 00:00:00.0000, 3.883093148996000E+08, 1.972398611993718E+08, -3.965541081828267E+07,
2460686.500000000, A.D. 2025-Jan-11 00:00:00.0000, 3.843792004947061E+08, 2.070245424678548E+08, -3.789491883229381E+07,
2460693.500000000, A.D. 2025-Jan-18 00:00:00.0000, 3.802273094996225E+08, 2.166898443473046E+08, -3.611256019482937E+07,
2460700.500000000, A.D. 2025-Jan-25 00:00:00.0000, 3.758573813781361E+08, 2.262309596270689E+08, -3.430949089033595E+07,
2460707.500000000, A.D. 2025-Feb-01 00:00:00.0000, 3.712732470137354E+08, 2.356432185363527E+08, -3.248686581406011E+07,
2460714.500000000, A.D. 2025-Feb-08 00:00:00.0000, 3.664788233452246E+08, 2.449220892779618E+08, -3.064583786483839E+07,
$$EOE